GPS BIIR-2  (PRN 13)    
1 24876C 97035A   20230.70645833  .00000000  00000-0  00000-0 0  2302
2 24876  55.4593 181.7640 0041702  58.2168 260.5158  2.00564939    17
GPS BIIR-3  (PRN 11)    
1 25933C 99055A   20230.70645833 -.00000000  00000-0  00000-0 0  2302
2 25933  52.3319  27.3708 0157958 116.4626 142.4408  2.00557787    10
GPS BIIR-4  (PRN 20)    
1 26360C 00025A   20230.70645833 -.00000000  00000-0  00000-0 0  2306
2 26360  53.5634 106.6217 0053736 156.2524 141.5550  2.00564842    10
GPS BIIR-5  (PRN 28)    
1 26407C 00040A   20230.70645833  .00000000  00000-0  00000-0 0  2304
2 26407  55.9484 299.7569 0186493 279.5964 340.2158  2.00564719    14
GPS BIIR-8  (PRN 16)    
1 27663C 03005A   20230.70645833  .00000000  00000-0  00000-0 0  2303
2 27663  56.0034 299.5460 0113678  35.1755 345.2810  2.00577519    11
GPS BIIR-9  (PRN 21)    
1 27704C 03010A   20230.70645833 -.00000000  00000-0  00000-0 0  2306
2 27704  54.6691  50.4987 0239750 285.3193   9.2138  2.00401020    16
GPS BIIR-10 (PRN 22)    
1 28129C 03058A   20230.70645833 -.00000000  00000-0  00000-0 0  2300
2 28129  53.3738 109.3255 0070357 296.0645 242.2535  2.00553362    12
GPS BIIR-11 (PRN 19)    
1 28190C 04009A   20230.70645833  .00000000  00000-0  00000-0 0  2304
2 28190  56.2657   0.3550 0091229  97.3612  80.2503  2.00561508    13
GPS BIIR-13 (PRN 02)    
1 28474C 04045A   20230.70645833 -.00000000  00000-0  00000-0 0  2300
2 28474  55.0119  50.3964 0199703 267.6917 186.7255  2.00553610    19
GPS BIIRM-1 (PRN 17)    
1 28874C 05038A   20230.70645833  .00000000  00000-0  00000-0 0  2306
2 28874  56.3651 357.7477 0135744 266.0275 291.2456  2.00556139    10
GPS BIIRM-2 (PRN 31)    
1 29486C 06042A   20230.70645833  .00000000  00000-0  00000-0 0  2302
2 29486  54.8481 235.9296 0095681   7.0113 114.8578  2.00567721    13
GPS BIIRM-3 (PRN 12)    
1 29601C 06052A   20230.70645833  .00000000  00000-0  00000-0 0  2302
2 29601  55.9922 298.4660 0077106  66.4393  92.4104  2.00567282    12
GPS BIIRM-4 (PRN 15)    
1 32260C 07047A   20230.70645833 -.00000000  00000-0  00000-0 0  2303
2 32260  53.1940 168.2549 0124427  51.1904 248.0891  2.00556040    17
GPS BIIRM-5 (PRN 29)    
1 32384C 07062A   20230.70645833  .00000000  00000-0  00000-0 0  2306
2 32384  56.4627 358.4295 0014364 129.4818 300.4045  2.00553663    16
GPS BIIRM-6 (PRN 07)    
1 32711C 08012A   20230.70645833  .00000000  00000-0  00000-0 0  2306
2 32711  54.5958 235.0190 0143489 224.7674 131.2402  2.00566167    10
GPS BIIRM-8 (PRN 05)    
1 35752C 09043A   20230.70645833 -.00000000  00000-0  00000-0 0  2300
2 35752  54.6217 112.5552 0059153  47.0318 341.5579  2.00558564    16
GPS BIIF-1  (PRN 25)    
1 36585C 10022A   20230.70645833  .00000000  00000-0  00000-0 0  2303
2 36585  55.2663 294.4572 0088980  52.9553  79.5340  2.00554683    13
GPS BIIF-2  (PRN 01)    
1 37753C 11036A   20230.70645833 -.00000000  00000-0  00000-0 0  2308
2 37753  56.2190  54.8639 0099156  45.9380 173.7016  2.00560570    15
GPS BIIF-3  (PRN 24)    
1 38833C 12053A   20230.70645833  .00000000  00000-0  00000-0 0  2307
2 38833  53.6394 230.8063 0097694  37.3247 190.3719  2.00566682    16
GPS BIIF-4  (PRN 27)    
1 39166C 13023A   20230.70645833  .00000000  00000-0  00000-0 0  2305
2 39166  56.0242 354.3724 0081965  31.8997 297.2886  2.00564550    10
GPS BIIF-5  (PRN 30)    
1 39533C 14008A   20230.70645833  .00000000  00000-0  00000-0 0  2307
2 39533  53.7531 236.2470 0048672 201.4858 126.6431  2.00570961    12
GPS BIIF-6  (PRN 06)    
1 39741C 14026A   20230.70645833 -.00000000  00000-0  00000-0 0  2309
2 39741  56.1927  54.3912 0019727 294.3559 192.7652  2.00572971    19
GPS BIIF-7  (PRN 09)    
1 40105C 14045A   20230.70645833 -.00000000  00000-0  00000-0 0  2306
2 40105  54.5951 173.5050 0014241 102.7691 318.0017  2.00563382    10
GPS BIIF-8  (PRN 03)    
1 40294C 14068A   20230.70645833 -.00000000  00000-0  00000-0 0  2300
2 40294  55.3716 114.4470 0030072  44.5195 112.0762  2.00552977    16
GPS BIIF-9  (PRN 26)    
1 40534C 15013A   20230.70645833  .00000000  00000-0  00000-0 0  2307
2 40534  54.1801 292.3472 0047950   9.1272  48.5989  2.00564452    14
GPS BIIF-10 (PRN 08)    
1 40730C 15033A   20230.70645833  .00000000  00000-0  00000-0 0  2307
2 40730  55.5392 353.5160 0054078 354.0723 306.9261  2.00559921    17
GPS BIIF-11 (PRN 10)    
1 41019C 15062A   20230.70645833 -.00000000  00000-0  00000-0 0  2301
2 41019  55.3675 114.2749 0058870 209.9061  54.6594  2.00564317    13
GPS BIIF-12 (PRN 32)    
1 41328C 16007A   20230.70645833 -.00000000  00000-0  00000-0 0  2304
2 41328  54.8294 174.0070 0042580 222.6750 333.1643  2.00555012    18
GPS BIII-1  (PRN 04)    
1 43873C 18109A   20230.70645833 -.00000000  00000-0  00000-0 0  2306
2 43873  55.0106 176.2873 0009060 216.0865 235.0374  2.00566947    15
GPS BIII-2  (PRN 18)    
1 44506C 19056A   20230.70645833 -.00000000  00000-0  00000-0 0  2302
2 44506  55.2799  55.7803 0008229 166.9760 187.2877  2.00558969    17
GPS BIII-3  (PRN 23)    
1 45854C 20041A   20230.70645833 -.00000000  00000-0  00000-0 0  2305
2 45854  55.0763 113.0163 0007182 100.8454 188.8064  2.00568017    14
